start=new Date('2023-03-18T00:00:00.000Z').valueOf();
sats=[{"OBJECT_TYPE":"PAYLOAD","FILE":"3863278","BSTAR":"0.00016768000000","CENTER_NAME":"EARTH","ECCENTRICITY":"0.00020040","PERIOD":"95.920","CLASSIFICATION_TYPE":"U","TIME_SYSTEM":"UTC","MEAN_MOTION":"15.01257526","LAUNCH_DATE":"2022-07-22","GP_ID":"228326068","REF_FRAME":"TEME","MEAN_MOTION_DOT":"0.00002095","MEAN_ELEMENT_THEORY":"SGP4","MEAN_MOTION_DDOT":"0.0000000000000","NORAD_CAT_ID":"53214","TLE_LINE2":"2 53214  97.6573 138.9709 0002004 106.0883 254.0562 15.01257526 36066","INCLINATION":"97.6573","RCS_SIZE":"LARGE","MEAN_ANOMALY":"254.0562","APOAPSIS":"564.410","REV_AT_EPOCH":"3606","OBJECT_ID":"2022-084AB","SITE":"AFWTR","TLE_LINE1":"1 53214U 22084AB  23076.58297092  .00002095  00000-0  16768-3 0  9998","OBJECT_NAME":"STARLINK-4353","DECAY_DATE":null,"COUNTRY_CODE":"US","EPHEMERIS_TYPE":"0","EPOCH":"2023-03-17T13:59:28.687488","SEMIMAJOR_AXIS":"6941.154","ELEMENT_SET_NO":"999","PERIAPSIS":"561.628","ARG_OF_PERICENTER":"106.0883","RA_OF_ASC_NODE":"138.9709"},{"ELEMENT_SET_NO":"999","SEMIMAJOR_AXIS":"6941.171","EPOCH":"2023-03-17T10:34:11.576064","RA_OF_ASC_NODE":"138.8307","ARG_OF_PERICENTER":"111.7912","PERIAPSIS":"561.392","TLE_LINE1":"1 53215U 22084AC  23076.44041176  .00003411  00000-0  27007-3 0  9995","SITE":"AFWTR","OBJECT_ID":"2022-084AC","REV_AT_EPOCH":"3656","COUNTRY_CODE":"US","DECAY_DATE":null,"EPHEMERIS_TYPE":"0","OBJECT_NAME":"STARLINK-4335","INCLINATION":"97.6554","NORAD_CAT_ID":"53215","TLE_LINE2":"2 53215  97.6554 138.8307 0002369 111.7912 248.3565 15.01252184 36568","MEAN_MOTION_DDOT":"0.0000000000000","MEAN_ELEMENT_THEORY":"SGP4","MEAN_MOTION_DOT":"0.00003411","REF_FRAME":"TEME","APOAPSIS":"564.680","MEAN_ANOMALY":"248.3565","RCS_SIZE":"LARGE","FILE":"3863278","OBJECT_TYPE":"PAYLOAD","GP_ID":"228324816","LAUNCH_DATE":"2022-07-22","MEAN_MOTION":"15.01252184","CLASSIFICATION_TYPE":"U","TIME_SYSTEM":"UTC","ECCENTRICITY":"0.00023690","PERIOD":"95.920","CENTER_NAME":"EARTH","BSTAR":"0.00027007000000"},{"OBJECT_TYPE":"PAYLOAD","FILE":"3863278","ECCENTRICITY":"0.00019570","PERIOD":"95.920","CENTER_NAME":"EARTH","BSTAR":"0.00085383000000","GP_ID":"228325066","LAUNCH_DATE":"2022-07-22","CLASSIFICATION_TYPE":"U","TIME_SYSTEM":"UTC","MEAN_MOTION":"15.01246488","MEAN_ELEMENT_THEORY":"SGP4","MEAN_MOTION_DDOT":"0.0000000000000","MEAN_MOTION_DOT":"0.00010921","REF_FRAME":"TEME","INCLINATION":"97.6565","TLE_LINE2":"2 53216  97.6565 138.8362 0001957 111.6986 248.4447 15.01246488 36047","NORAD_CAT_ID":"53216","RCS_SIZE":"LARGE","APOAPSIS":"564.412","MEAN_ANOMALY":"248.4447","OBJECT_ID":"2022-084AD","REV_AT_EPOCH":"3604","TLE_LINE1":"1 53216U 22084AD  23076.44596732  .00010921  00000-0  85383-3 0  9994","SITE":"AFWTR","COUNTRY_CODE":"US","DECAY_DATE":null,"EPHEMERIS_TYPE":"0","OBJECT_NAME":"STARLINK-4376","EPOCH":"2023-03-17T10:42:11.576448","ELEMENT_SET_NO":"999","SEMIMAJOR_AXIS":"6941.188","PERIAPSIS":"561.695","RA_OF_ASC_NODE":"138.8362","ARG_OF_PERICENTER":"111.6986"},{"DECAY_DATE":null,"EPHEMERIS_TYPE":"0","COUNTRY_CODE":"US","OBJECT_NAME":"STARLINK-4379","REV_AT_EPOCH":"3607","OBJECT_ID":"2022-084AE","TLE_LINE1":"1 53217U 22084AE  23076.63691282  .00008585  00000-0  67219-3 0  9993","SITE":"AFWTR","PERIAPSIS":"561.765","ARG_OF_PERICENTER":"109.5959","RA_OF_ASC_NODE":"139.0208","EPOCH":"2023-03-17T15:17:09.267648","ELEMENT_SET_NO":"999","SEMIMAJOR_AXIS":"6941.152","CENTER_NAME":"EARTH","PERIOD":"95.920","ECCENTRICITY":"0.00018030","BSTAR":"0.00067219000000","LAUNCH_DATE":"2022-07-22","GP_ID":"228355867","MEAN_MOTION":"15.01258362","CLASSIFICATION_TYPE":"U","TIME_SYSTEM":"UTC","OBJECT_TYPE":"PAYLOAD","FILE":"3863544","RCS_SIZE":"LARGE","APOAPSIS":"564.268","MEAN_ANOMALY":"250.5460","MEAN_MOTION_DDOT":"0.0000000000000","MEAN_ELEMENT_THEORY":"SGP4","REF_FRAME":"TEME","MEAN_MOTION_DOT":"0.00008585","INCLINATION":"97.6534","NORAD_CAT_ID":"53217","TLE_LINE2":"2 53217  97.6534 139.0208 0001803 109.5959 250.5460 15.01258362 36078"},{"MEAN_ANOMALY":"256.0950","APOAPSIS":"564.168","RCS_SIZE":"LARGE","NORAD_CAT_ID":"53218","TLE_LINE2":"2 53218  97.6563 138.8356 0001637 104.0456 256.0950 15.01253449 36569","INCLINATION":"97.6563","REF_FRAME":"TEME","MEAN_MOTION_DOT":"0.00006690","MEAN_MOTION_DDOT":"0.0000000000000","MEAN_ELEMENT_THEORY":"SGP4","MEAN_MOTION":"15.01253449","CLASSIFICATION_TYPE":"U","TIME_SYSTEM":"UTC","GP_ID":"228325568","LAUNCH_DATE":"2022-07-22","BSTAR":"0.00052504000000","CENTER_NAME":"EARTH","ECCENTRICITY":"0.00016370","PERIOD":"95.920","FILE":"3863278","OBJECT_TYPE":"PAYLOAD","ARG_OF_PERICENTER":"104.0456","RA_OF_ASC_NODE":"138.8356","PERIAPSIS":"561.896","SEMIMAJOR_AXIS":"6941.167","ELEMENT_SET_NO":"999","EPOCH":"2023-03-17T10:39:31.518720","OBJECT_NAME":"STARLINK-4384","DECAY_DATE":null,"EPHEMERIS_TYPE":"0","COUNTRY_CODE":"US","SITE":"AFWTR","TLE_LINE1":"1 53218U 22084AF  23076.44411480  .00006690  00000-0  52504-3 0  9999","REV_AT_EPOCH":"3656","OBJECT_ID":"2022-084AF"},{"MEAN_MOTION_DOT":"-0.00001052","REF_FRAME":"TEME","MEAN_ELEMENT_THEORY":"SGP4","MEAN_MOTION_DDOT":"0.0000000000000","TLE_LINE2":"2 53219  97.6518 139.0111 0002198 101.8377 258.3094 15.01262562 36078","NORAD_CAT_ID":"53219","INCLINATION":"97.6518","RCS_SIZE":"LARGE","MEAN_ANOMALY":"258.3094","APOAPSIS":"564.530","OBJECT_TYPE":"PAYLOAD","FILE":"3863544","BSTAR":"-0.00007734800000","ECCENTRICITY":"0.00021980","PERIOD":"95.919","CENTER_NAME":"EARTH","CLASSIFICATION_TYPE":"U","TIME_SYSTEM":"UTC","MEAN_MOTION":"15.01262562","GP_ID":"228356868","LAUNCH_DATE":"2022-07-22","EPOCH":"2023-03-17T15:11:28.201920","SEMIMAJOR_AXIS":"6941.139","ELEMENT_SET_NO":"999","PERIAPSIS":"561.478","RA_OF_ASC_NODE":"139.0111","ARG_OF_PERICENTER":"101.8377","OBJECT_ID":"2022-084AG","REV_AT_EPOCH":"3607","SITE":"AFWTR","TLE_LINE1":"1 53219U 22084AG  23076.63296530 -.00001052  00000-0 -77348-4 0  9991","OBJECT_NAME":"STARLINK-4373","EPHEMERIS_TYPE":"0","DECAY_DATE":null,"COUNTRY_CODE":"US"},{"OBJECT_NAME":"STARLINK-4363","DECAY_DATE":null,"EPHEMERIS_TYPE":"0","COUNTRY_CODE":"US","OBJECT_ID":"2022-084AH","REV_AT_EPOCH":"3656","SITE":"AFWTR","TLE_LINE1":"1 53220U 22084AH  23076.43856046  .00006058  00000-0  47586-3 0  9994","PERIAPSIS":"561.385","RA_OF_ASC_NODE":"138.8279","ARG_OF_PERICENTER":"101.3855","EPOCH":"2023-03-17T10:31:31.623744","SEMIMAJOR_AXIS":"6941.165","ELEMENT_SET_NO":"999","BSTAR":"0.00047586000000","PERIOD":"95.920","ECCENTRICITY":"0.00023710","CENTER_NAME":"EARTH","TIME_SYSTEM":"UTC","CLASSIFICATION_TYPE":"U","MEAN_MOTION":"15.01253999","LAUNCH_DATE":"2022-07-22","GP_ID":"228324566","OBJECT_TYPE":"PAYLOAD","FILE":"3863278","RCS_SIZE":"LARGE","MEAN_ANOMALY":"258.7636","APOAPSIS":"564.676","MEAN_MOTION_DOT":"0.00006058","REF_FRAME":"TEME","MEAN_ELEMENT_THEORY":"SGP4","MEAN_MOTION_DDOT":"0.0000000000000","TLE_LINE2":"2 53220  97.6542 138.8279 0002371 101.3855 258.7636 15.01253999 36562","NORAD_CAT_ID":"53220","INCLINATION":"97.6542"},{"PERIAPSIS":"561.817","RA_OF_ASC_NODE":"139.0099","ARG_OF_PERICENTER":"115.3777","EPOCH":"2023-03-17T15:08:48.234048","SEMIMAJOR_AXIS":"6941.155","ELEMENT_SET_NO":"999","OBJECT_NAME":"STARLINK-4377","DECAY_DATE":null,"EPHEMERIS_TYPE":"0","COUNTRY_CODE":"US","OBJECT_ID":"2022-084AJ","REV_AT_EPOCH":"3607","SITE":"AFWTR","TLE_LINE1":"1 53221U 22084AJ  23076.63111382  .00009003  00000-0  70466-3 0  9990","RCS_SIZE":"LARGE","MEAN_ANOMALY":"244.7627","APOAPSIS":"564.223","MEAN_MOTION_DOT":"0.00009003","REF_FRAME":"TEME","MEAN_MOTION_DDOT":"0.0000000000000","MEAN_ELEMENT_THEORY":"SGP4","TLE_LINE2":"2 53221  97.6543 139.0099 0001733 115.3777 244.7627 15.01257264 36076","NORAD_CAT_ID":"53221","INCLINATION":"97.6543","BSTAR":"0.00070466000000","PERIOD":"95.920","ECCENTRICITY":"0.00017330","CENTER_NAME":"EARTH","TIME_SYSTEM":"UTC","CLASSIFICATION_TYPE":"U","MEAN_MOTION":"15.01257264","LAUNCH_DATE":"2022-07-22","GP_ID":"228356367","OBJECT_TYPE":"PAYLOAD","FILE":"3863544"},{"OBJECT_ID":"2022-084AK","REV_AT_EPOCH":"3604","SITE":"AFWTR","TLE_LINE1":"1 53222U 22084AK  23076.43670511  .00010113  00000-0  79059-3 0  9994","OBJECT_NAME":"STARLINK-4381","EPHEMERIS_TYPE":"0","DECAY_DATE":null,"COUNTRY_CODE":"US","EPOCH":"2023-03-17T10:28:51.321504","SEMIMAJOR_AXIS":"6941.117","ELEMENT_SET_NO":"999","PERIAPSIS":"561.513","RA_OF_ASC_NODE":"138.8216","ARG_OF_PERICENTER":"82.5303","OBJECT_TYPE":"PAYLOAD","FILE":"3863278","BSTAR":"0.00079059000000","PERIOD":"95.919","ECCENTRICITY":"0.00021170","CENTER_NAME":"EARTH","CLASSIFICATION_TYPE":"U","MEAN_MOTION":"15.01269633","TIME_SYSTEM":"UTC","GP_ID":"228326069","LAUNCH_DATE":"2022-07-22","MEAN_MOTION_DOT":"0.00010113","REF_FRAME":"TEME","MEAN_ELEMENT_THEORY":"SGP4","MEAN_MOTION_DDOT":"0.0000000000000","TLE_LINE2":"2 53222  97.6530 138.8216 0002117  82.5303 277.6162 15.01269633 36047","NORAD_CAT_ID":"53222","INCLINATION":"97.6530","RCS_SIZE":"LARGE","MEAN_ANOMALY":"277.6162","APOAPSIS":"564.452"},{"APOAPSIS":"564.148","MEAN_ANOMALY":"258.1176","RCS_SIZE":"LARGE","INCLINATION":"97.6539","NORAD_CAT_ID":"53223","TLE_LINE2":"2 53223  97.6539 139.0070 0001635 102.0232 258.1176 15.01259579 36071","MEAN_MOTION_DDOT":"0.0000000000000","MEAN_ELEMENT_THEORY":"SGP4","MEAN_MOTION_DOT":"0.00002199","REF_FRAME":"TEME","GP_ID":"228357368","LAUNCH_DATE":"2022-07-22","CLASSIFICATION_TYPE":"U","TIME_SYSTEM":"UTC","MEAN_MOTION":"15.01259579","PERIOD":"95.919","ECCENTRICITY":"0.00016350","CENTER_NAME":"EARTH","BSTAR":"0.00017572000000","FILE":"3863544","OBJECT_TYPE":"PAYLOAD","RA_OF_ASC_NODE":"139.0070","ARG_OF_PERICENTER":"102.0232","PERIAPSIS":"561.878","ELEMENT_SET_NO":"999","SEMIMAJOR_AXIS":"6941.148","EPOCH":"2023-03-17T15:06:07.962912","DECAY_DATE":null,"EPHEMERIS_TYPE":"0","COUNTRY_CODE":"US","OBJECT_NAME":"STARLINK-4354","TLE_LINE1":"1 53223U 22084AL  23076.62925883  .00002199  00000-0  17572-3 0  9998","SITE":"AFWTR","OBJECT_ID":"2022-084AL","REV_AT_EPOCH":"3607"}];
